{"fetched_at":"2026-04-01T16:59:04Z","count":11445,"tles":[{"name":"BEIDOU-3S IGSO-2S (C56)","line1":"1 40938U 15053A   26082.93854925 -.00000121  00000+0  00000+0 0  9994","line2":"2 40938  49.3558 259.7919 0062496 189.3068 166.8287  1.00279333 38494","category":"GPS"}]}